{"fetched_at":"2026-07-07T07:58:10.717Z","source":"https://celestrak.org/NORAD/elements/gp.php?GROUP=oneweb&FORMAT=JSON","constellation":"oneweb","records":[{"OBJECT_NAME":"ONEWEB-0233","OBJECT_ID":"2021-045AE","EPOCH":"2026-07-06T06:16:20.274528","CLASSIFICATION_TYPE":"U","MEAN_MOTION":13.15543356,"ECCENTRICITY":0.00020871,"INCLINATION":87.8991,"RA_OF_ASC_NODE":255.4346,"ARG_OF_PERICENTER":109.2772,"MEAN_ANOMALY":250.8584,"EPHEMERIS_TYPE":0,"NORAD_CAT_ID":48795,"ELEMENT_SET_NO":999,"REV_AT_EPOCH":24680,"BSTAR":0.0030125065,"MEAN_MOTION_DOT":0.00001147,"MEAN_MOTION_DDOT":0},{"OBJECT_NAME":"ONEWEB-0190","OBJECT_ID":"2021-045AF","EPOCH":"2026-07-06T05:58:16.205952","CLASSIFICATION_TYPE":"U","MEAN_MOTION":13.15548954,"ECCENTRICITY":0.00019833,"INCLINATION":87.8996,"RA_OF_ASC_NODE":255.3999,"ARG_OF_PERICENTER":118.9215,"MEAN_ANOMALY":241.2115,"EPHEMERIS_TYPE":0,"NORAD_CAT_ID":48796,"ELEMENT_SET_NO":999,"REV_AT_EPOCH":24687,"BSTAR":0.00054209348,"MEAN_MOTION_DOT":0.00000217,"MEAN_MOTION_DDOT":0},{"OBJECT_NAME":"ONEWEB-0236","OBJECT_ID":"2021-045AG","EPOCH":"2026-07-06T04:33:51.065568","CLASSIFICATION_TYPE":"U","MEAN_MOTION":13.15548146,"ECCENTRICITY":0.00021655,"INCLINATION":87.8991,"RA_OF_ASC_NODE":255.4202,"ARG_OF_PERICENTER":96.9389,"MEAN_ANOMALY":263.1988,"EPHEMERIS_TYPE":0,"NORAD_CAT_ID":48797,"ELEMENT_SET_NO":999,"REV_AT_EPOCH":24675,"BSTAR":0.00024351276,"MEAN_MOTION_DOT":0.00000105,"MEAN_MOTION_DDOT":0},{"OBJECT_NAME":"ONEWEB-0248","OBJECT_ID":"2021-045AH","EPOCH":"2026-07-06T04:52:05.941920","CLASSIFICATION_TYPE":"U","MEAN_MOTION":13.15548479,"ECCENTRICITY":0.00022575,"INCLINATION":87.9002,"RA_OF_ASC_NODE":255.403,"ARG_OF_PERICENTER":110.9773,"MEAN_ANOMALY":249.1599,"EPHEMERIS_TYPE":0,"NORAD_CAT_ID":48798,"ELEMENT_SET_NO":999,"REV_AT_EPOCH":24691,"BSTAR":0.000015672552,"MEAN_MOTION_DOT":1.9e-7,"MEAN_MOTION_DDOT":0},{"OBJECT_NAME":"ONEWEB-0225","OBJECT_ID":"2021-045AJ","EPOCH":"2026-07-06T05:24:02.596320","CLASSIFICATION_TYPE":"U","MEAN_MOTION":13.15547979,"ECCENTRICITY":0.00020072,"INCLINATION":87.8996,"RA_OF_ASC_NODE":255.4062,"ARG_OF_PERICENTER":115.3194,"MEAN_ANOMALY":244.8144,"EPHEMERIS_TYPE":0,"NORAD_CAT_ID":48799,"ELEMENT_SET_NO":999,"REV_AT_EPOCH":24692,"BSTAR":-0.00013995847,"MEAN_MOTION_DOT":-4e-7,"MEAN_MOTION_DDOT":0},{"OBJECT_NAME":"ONEWEB-0215","OBJECT_ID":"2021-045AK","EPOCH":"2026-07-06T04:40:41.334240","CLASSIFICATION_TYPE":"U","MEAN_MOTION":13.1554903,"ECCENTRICITY":0.0002143,"INCLINATION":87.9004,"RA_OF_ASC_NODE":255.3956,"ARG_OF_PERICENTER":118.027,"MEAN_ANOMALY":242.1077,"EPHEMERIS_TYPE":0,"NORAD_CAT_ID":48800,"ELEMENT_SET_NO":999,"REV_AT_EPOCH":24679,"BSTAR":0.00031957041,"MEAN_MOTION_DOT":0.00000133,"MEAN_MOTION_DDOT":0},{"OBJECT_NAME":"ONEWEB-0216","OBJECT_ID":"2021-045AL","EPOCH":"2026-07-06T04:54:22.826304","CLASSIFICATION_TYPE":"U","MEAN_MOTION":13.15547903,"ECCENTRICITY":0.00019957,"INCLINATION":87.9001,"RA_OF_ASC_NODE":255.4078,"ARG_OF_PERICENTER":97.379,"MEAN_ANOMALY":262.7567,"EPHEMERIS_TYPE":0,"NORAD_CAT_ID":48801,"ELEMENT_SET_NO":999,"REV_AT_EPOCH":24680,"BSTAR":0.000069856818,"MEAN_MOTION_DOT":3.9e-7,"MEAN_MOTION_DDOT":0},{"OBJECT_NAME":"ONEWEB-0239","OBJECT_ID":"2021-045AM","EPOCH":"2026-07-06T05:01:13.450080","CLASSIFICATION_TYPE":"U","MEAN_MOTION":13.15548049,"ECCENTRICITY":0.00024387,"INCLINATION":87.899,"RA_OF_ASC_NODE":255.4116,"ARG_OF_PERICENTER":117.8194,"MEAN_ANOMALY":242.3183,"EPHEMERIS_TYPE":0,"NORAD_CAT_ID":48802,"ELEMENT_SET_NO":999,"REV_AT_EPOCH":24684,"BSTAR":0.000017210325,"MEAN_MOTION_DOT":1.9e-7,"MEAN_MOTION_DDOT":0},{"OBJECT_NAME":"ONEWEB-0249","OBJECT_ID":"2021-060A","EPOCH":"2026-07-06T14:01:05.326752","CLASSIFICATION_TYPE":"U","MEAN_MOTION":13.16596447,"ECCENTRICITY":0.0002165,"INCLINATION":87.9082,"RA_OF_ASC_NODE":224.9253,"ARG_OF_PERICENTER":97.1179,"MEAN_ANOMALY":263.0199,"EPHEMERIS_TYPE":0,"NORAD_CAT_ID":48967,"ELEMENT_SET_NO":999,"REV_AT_EPOCH":24216,"BSTAR":-0.000088814,"MEAN_MOTION_DOT":-2.1e-7,"MEAN_MOTION_DDOT":0},{"OBJECT_NAME":"ONEWEB-0250","OBJECT_ID":"2021-060B","EPOCH":"2026-07-06T15:03:16.552224","CLASSIFICATION_TYPE":"U","MEAN_MOTION":13.25835145,"ECCENTRICITY":0.0003136,"INCLINATION":87.9083,"RA_OF_ASC_NODE":222.6098,"ARG_OF_PERICENTER":94.5527,"MEAN_ANOMALY":265.5968,"EPHEMERIS_TYPE":0,"NORAD_CAT_ID":48968,"ELEMENT_SET_NO":999,"REV_AT_EPOCH":24279,"BSTAR":-0.000076686,"MEAN_MOTION_DOT":-2e-7,"MEAN_MOTION_DDOT":0},{"OBJECT_NAME":"ONEWEB-0252","OBJECT_ID":"2021-060D","EPOCH":"2026-07-06T14:45:34.958880","CLASSIFICATION_TYPE":"U","MEAN_MOTION":13.16594936,"ECCENTRICITY":0.0001837,"INCLINATION":87.908,"RA_OF_ASC_NODE":224.9117,"ARG_OF_PERICENTER":95.0582,"MEAN_ANOMALY":265.0759,"EPHEMERIS_TYPE":0,"NORAD_CAT_ID":48970,"ELEMENT_SET_NO":999,"REV_AT_EPOCH":24221,"BSTAR":0.000045951,"MEAN_MOTION_DOT":3e-7,"MEAN_MOTION_DDOT":0},{"OBJECT_NAME":"ONEWEB-0253","OBJECT_ID":"2021-060E","EPOCH":"2026-07-06T14:29:37.493088","CLASSIFICATION_TYPE":"U","MEAN_MOTION":13.16594853,"ECCENTRICITY":0.0002167,"INCLINATION":87.9078,"RA_OF_ASC_NODE":224.9194,"ARG_OF_PERICENTER":96.6238,"MEAN_ANOMALY":263.514,"EPHEMERIS_TYPE":0,"NORAD_CAT_ID":48971,"ELEMENT_SET_NO":999,"REV_AT_EPOCH":24214,"BSTAR":0.000035768,"MEAN_MOTION_DOT":2.7e-7,"MEAN_MOTION_DDOT":0},{"OBJECT_NAME":"ONEWEB-0254","OBJECT_ID":"2021-060F","EPOCH":"2026-07-06T14:43:18.128928","CLASSIFICATION_TYPE":"U","MEAN_MOTION":13.16593697,"ECCENTRICITY":0.0002217,"INCLINATION":87.9083,"RA_OF_ASC_NODE":224.9154,"ARG_OF_PERICENTER":102.8031,"MEAN_ANOMALY":257.3348,"EPHEMERIS_TYPE":0,"NORAD_CAT_ID":48972,"ELEMENT_SET_NO":999,"REV_AT_EPOCH":24214,"BSTAR":0.00011122,"MEAN_MOTION_DOT":5.5e-7,"MEAN_MOTION_DDOT":0},{"OBJECT_NAME":"ONEWEB-0255","OBJECT_ID":"2021-060G","EPOCH":"2026-07-06T15:38:01.149216","CLASSIFICATION_TYPE":"U","MEAN_MOTION":13.16593934,"ECCENTRICITY":0.0002107,"INCLINATION":87.9083,"RA_OF_ASC_NODE":224.9139,"ARG_OF_PERICENTER":99.7147,"MEAN_ANOMALY":260.4222,"EPHEMERIS_TYPE":0,"NORAD_CAT_ID":48973,"ELEMENT_SET_NO":999,"REV_AT_EPOCH":24222,"BSTAR":-0.000064593,"MEAN_MOTION_DOT":-1.2e-7,"MEAN_MOTION_DDOT":0},{"OBJECT_NAME":"ONEWEB-0256","OBJECT_ID":"2021-060H","EPOCH":"2026-07-06T14:26:12.254208","CLASSIFICATION_TYPE":"U","MEAN_MOTION":13.16594501,"ECCENTRICITY":0.0002021,"INCLINATION":87.9077,"RA_OF_ASC_NODE":224.9273,"ARG_OF_PERICENTER":91.9961,"MEAN_ANOMALY":268.1402,"EPHEMERIS_TYPE":0,"NORAD_CAT_ID":48974,"ELEMENT_SET_NO":999,"REV_AT_EPOCH":24218,"BSTAR":-0.00012854,"MEAN_MOTION_DOT":-3.6e-7,"MEAN_MOTION_DDOT":0},{"OBJECT_NAME":"ONEWEB-0257","OBJECT_ID":"2021-060J","EPOCH":"2026-07-06T15:12:56.267712","CLASSIFICATION_TYPE":"U","MEAN_MOTION":13.16593131,"ECCENTRICITY":0.0001975,"INCLINATION":87.9081,"RA_OF_ASC_NODE":224.9087,"ARG_OF_PERICENTER":98.0506,"MEAN_ANOMALY":262.0849,"EPHEMERIS_TYPE":0,"NORAD_CAT_ID":48975,"ELEMENT_SET_NO":999,"REV_AT_EPOCH":24214,"BSTAR":0.000039911,"MEAN_MOTION_DOT":2.8e-7,"MEAN_MOTION_DDOT":0}]}
